[
    {
        "Altitude(m)": 703048.7791713795,
        "Argument of Periapsis(deg)": 0.0034170363559881197,
        "Eccentricity": 0.0,
        "Inclination(deg)": 45.0,
        "Latitude(deg)": 20.28003157144024,
        "Longitude(deg)": -176.7739047740077,
        "Mean Anomaly(deg)": 150.7326649942442,
        "RAAN(deg)": 124.99677441756256,
        "Satellite Name": "Constellation 1 559",
        "Satellite Number": 559,
        "Semi-Major Axis(m)": 7083131.272910544,
        "Time(s)": 57
    },
    {
        "Altitude(m)": 703045.3992508518,
        "Argument of Periapsis(deg)": 0.003476984362233526,
        "Eccentricity": 0.0,
        "Inclination(deg)": 45.0,
        "Latitude(deg)": 20.239864478935708,
        "Longitude(deg)": -176.7293372006294,
        "Mean Anomaly(deg)": 150.79336613449416,
        "RAAN(deg)": 124.99671782839697,
        "Satellite Name": "Constellation 1 559",
        "Satellite Number": 559,
        "Semi-Major Axis(m)": 7083131.272910544,
        "Time(s)": 58
    },
    {
        "Altitude(m)": 703042.0330531978,
        "Argument of Periapsis(deg)": 0.003536932368478932,
        "Eccentricity": 0.0,
        "Inclination(deg)": 45.0,
        "Latitude(deg)": 20.1996837280973,
        "Longitude(deg)": -176.6847948133895,
        "Mean Anomaly(deg)": 150.854067274744,
        "RAAN(deg)": 124.99666123923141,
        "Satellite Name": "Constellation 1 559",
        "Satellite Number": 559,
        "Semi-Major Axis(m)": 7083131.272910544,
        "Time(s)": 59
    },
    {
        "Altitude(m)": 703038.6806102687,
        "Argument of Periapsis(deg)": 0.003596880374724337,
        "Eccentricity": 0.0,
        "Inclination(deg)": 45.0,
        "Latitude(deg)": 20.15948935516075,
        "Longitude(deg)": -176.6402772177622,
        "Mean Anomaly(deg)": 150.91476841499397,
        "RAAN(deg)": 124.99660465006582,
        "Satellite Name": "Constellation 1 559",
        "Satellite Number": 559,
        "Semi-Major Axis(m)": 7083131.272910544,
        "Time(s)": 60
    },
    {
        "Altitude(m)": 703035.3419538644,
        "Argument of Periapsis(deg)": 0.0036568283809697427,
        "Eccentricity": 0.0,
        "Inclination(deg)": 45.0,
        "Latitude(deg)": 20.11928139631385,
        "Longitude(deg)": -176.59578452354108,
        "Mean Anomaly(deg)": 150.97546955524385,
        "RAAN(deg)": 124.99654806090027,
        "Satellite Name": "Constellation 1 559",
        "Satellite Number": 559,
        "Semi-Major Axis(m)": 7083131.272910544,
        "Time(s)": 61
    },
    {
        "Altitude(m)": 703032.0171157331,
        "Argument of Periapsis(deg)": 0.003716776387215149,
        "Eccentricity": 0.0,
        "Inclination(deg)": 45.0,
        "Latitude(deg)": 20.079059887694513,
        "Longitude(deg)": -176.55131667244996,
        "Mean Anomaly(deg)": 151.03617069549375,
        "RAAN(deg)": 124.99649147173471,
        "Satellite Name": "Constellation 1 559",
        "Satellite Number": 559,
        "Semi-Major Axis(m)": 7083131.272910544,
        "Time(s)": 62
    },
    {
        "Altitude(m)": 703028.706127567,
        "Argument of Periapsis(deg)": 0.003776724393460554,
        "Eccentricity": 0.0,
        "Inclination(deg)": 45.0,
        "Latitude(deg)": 20.038824865391952,
        "Longitude(deg)": -176.5068736062408,
        "Mean Anomaly(deg)": 151.0968718357436,
        "RAAN(deg)": 124.99643488256912,
        "Satellite Name": "Constellation 1 559",
        "Satellite Number": 559,
        "Semi-Major Axis(m)": 7083131.272910544,
        "Time(s)": 63
    },
    {
        "Altitude(m)": 703025.4090210167,
        "Argument of Periapsis(deg)": 0.003836672399705959,
        "Eccentricity": 0.0,
        "Inclination(deg)": 45.0,
        "Latitude(deg)": 19.99857636544611,
        "Longitude(deg)": -176.46245526669324,
        "Mean Anomaly(deg)": 151.15757297599353,
        "RAAN(deg)": 124.99637829340357,
        "Satellite Name": "Constellation 1 559",
        "Satellite Number": 559,
        "Semi-Major Axis(m)": 7083131.272910544,
        "Time(s)": 64
    },
    {
        "Altitude(m)": 703022.1258276594,
        "Argument of Periapsis(deg)": 0.003896620405951365,
        "Eccentricity": 0.0,
        "Inclination(deg)": 45.0,
        "Latitude(deg)": 19.958314423848535,
        "Longitude(deg)": -176.41806159561523,
        "Mean Anomaly(deg)": 151.2182741162434,
        "RAAN(deg)": 124.996321704238,
        "Satellite Name": "Constellation 1 559",
        "Satellite Number": 559,
        "Semi-Major Axis(m)": 7083131.272910544,
        "Time(s)": 65
    },
    {
        "Altitude(m)": 703018.8565790396,
        "Argument of Periapsis(deg)": 0.003956568412196771,
        "Eccentricity": 0.0,
        "Inclination(deg)": 45.0,
        "Latitude(deg)": 19.918039076541763,
        "Longitude(deg)": -176.3736925348427,
        "Mean Anomaly(deg)": 151.27897525649334,
        "RAAN(deg)": 124.99626511507242,
        "Satellite Name": "Constellation 1 559",
        "Satellite Number": 559,
        "Semi-Major Axis(m)": 7083131.272910544,
        "Time(s)": 66
    },
    {
        "Altitude(m)": 703015.6013066414,
        "Argument of Periapsis(deg)": 0.004016516418442176,
        "Eccentricity": 0.0,
        "Inclination(deg)": 45.0,
        "Latitude(deg)": 19.877750359420315,
        "Longitude(deg)": -176.32934819433683,
        "Mean Anomaly(deg)": 151.33967639674322,
        "RAAN(deg)": 124.99620852590685,
        "Satellite Name": "Constellation 1 559",
        "Satellite Number": 559,
        "Semi-Major Axis(m)": 7083131.272910544,
        "Time(s)": 67
    },
    {
        "Altitude(m)": 703012.3600418868,
        "Argument of Periapsis(deg)": 0.004076464424687581,
        "Eccentricity": 0.0,
        "Inclination(deg)": 45.0,
        "Latitude(deg)": 19.83744830832905,
        "Longitude(deg)": -176.28502817979577,
        "Mean Anomaly(deg)": 151.40037753699315,
        "RAAN(deg)": 124.99615193674128,
        "Satellite Name": "Constellation 1 559",
        "Satellite Number": 559,
        "Semi-Major Axis(m)": 7083131.272910544,
        "Time(s)": 68
    },
    {
        "Altitude(m)": 703009.1328161545,
        "Argument of Periapsis(deg)": 0.004136412430932987,
        "Eccentricity": 0.0,
        "Inclination(deg)": 45.0,
        "Latitude(deg)": 19.7971329590657,
        "Longitude(deg)": -176.24073260123737,
        "Mean Anomaly(deg)": 151.46107867724302,
        "RAAN(deg)": 124.9960953475757,
        "Satellite Name": "Constellation 1 559",
        "Satellite Number": 559,
        "Semi-Major Axis(m)": 7083131.272910544,
        "Time(s)": 69
    },
    {
        "Altitude(m)": 703005.9196607722,
        "Argument of Periapsis(deg)": 0.004196360437178394,
        "Eccentricity": 0.0,
        "Inclination(deg)": 45.0,
        "Latitude(deg)": 19.756804347379298,
        "Longitude(deg)": -176.19646140061067,
        "Mean Anomaly(deg)": 151.5217798174929,
        "RAAN(deg)": 124.99603875841015,
        "Satellite Name": "Constellation 1 559",
        "Satellite Number": 559,
        "Semi-Major Axis(m)": 7083131.272910544,
        "Time(s)": 70
    },
    {
        "Altitude(m)": 703002.7206070054,
        "Argument of Periapsis(deg)": 0.004256308443423799,
        "Eccentricity": 0.0,
        "Inclination(deg)": 45.0,
        "Latitude(deg)": 19.716462508970704,
        "Longitude(deg)": -176.15221451989325,
        "Mean Anomaly(deg)": 151.58248095774286,
        "RAAN(deg)": 124.99598216924457,
        "Satellite Name": "Constellation 1 559",
        "Satellite Number": 559,
        "Semi-Major Axis(m)": 7083131.272910544,
        "Time(s)": 71
    },
    {
        "Altitude(m)": 702999.5356860677,
        "Argument of Periapsis(deg)": 0.004316256449669204,
        "Eccentricity": 0.0,
        "Inclination(deg)": 45.0,
        "Latitude(deg)": 19.676107479493055,
        "Longitude(deg)": -176.1079919010914,
        "Mean Anomaly(deg)": 151.6431820979927,
        "RAAN(deg)": 124.995925580079,
        "Satellite Name": "Constellation 1 559",
        "Satellite Number": 559,
        "Semi-Major Axis(m)": 7083131.272910544,
        "Time(s)": 72
    },
    {
        "Altitude(m)": 702996.3649291232,
        "Argument of Periapsis(deg)": 0.00437620445591461,
        "Eccentricity": 0.0,
        "Inclination(deg)": 45.0,
        "Latitude(deg)": 19.635739294551342,
        "Longitude(deg)": -176.06379348623975,
        "Mean Anomaly(deg)": 151.70388323824258,
        "RAAN(deg)": 124.99586899091345,
        "Satellite Name": "Constellation 1 559",
        "Satellite Number": 559,
        "Semi-Major Axis(m)": 7083131.272910544,
        "Time(s)": 73
    },
    {
        "Altitude(m)": 702993.2083672741,
        "Argument of Periapsis(deg)": 0.004436152462160016,
        "Eccentricity": 0.0,
        "Inclination(deg)": 45.0,
        "Latitude(deg)": 19.59535798970315,
        "Longitude(deg)": -176.01961938549883,
        "Mean Anomaly(deg)": 151.76458437849254,
        "RAAN(deg)": 124.99581240174786,
        "Satellite Name": "Constellation 1 559",
        "Satellite Number": 559,
        "Semi-Major Axis(m)": 7083131.272910544,
        "Time(s)": 74
    },
    {
        "Altitude(m)": 702990.0660315779,
        "Argument of Periapsis(deg)": 0.0044961004684054215,
        "Eccentricity": 0.0,
        "Inclination(deg)": 45.0,
        "Latitude(deg)": 19.554963600457743,
        "Longitude(deg)": -175.97546920476697,
        "Mean Anomaly(deg)": 151.8252855187424,
        "RAAN(deg)": 124.9957558125823,
        "Satellite Name": "Constellation 1 559",
        "Satellite Number": 559,
        "Semi-Major Axis(m)": 7083131.272910544,
        "Time(s)": 75
    }
]